ONEWEB-0668             
1 56711U 23068B   24284.71722182  .00000217  00000+0  53531-3 0  9998
2 56711  87.9146 351.1646 0001753  80.5329 279.6000 13.16595010 70929
ONEWEB-0676             
1 56712U 23068C   24284.69741834 -.00000305  00000+0 -83222-3 0  9991
2 56712  87.9151 351.1825 0001874 117.2099 242.9223 13.16593912 70841
ONEWEB-0677             
1 56713U 23068D   24285.02643461  .00000106  00000+0  22801-3 0  9990
2 56713  87.9275  36.6252 0001501 103.6642 256.4658 13.20774390 69439
ONEWEB-0678             
1 56714U 23068E   24284.76888560 -.00000109  00000+0 -32460-3 0  9999
2 56714  87.9127  21.4509 0002171 105.2367 254.9003 13.15545581 68505
ONEWEB-0679             
1 56715U 23068F   24284.74254643  .00000072  00000+0  15558-3 0  9993
2 56715  87.9154 351.1739 0001228  97.9800 262.1471 13.16595193 70873
ONEWEB-0680             
1 56716U 23068G   24284.74521411  .00000040  00000+0  65767-4 0  9997
2 56716  87.9360   6.3858 0001600  76.3515 283.7797 13.21828127 69928
ONEWEB-0682             
1 56718U 23068J   24285.17531632  .00000510  00000+0  13197-2 0  9993
2 56718  87.9125  21.4089 0001407  87.4926 272.6365 13.15553702 69427
